FENGYUN 3D              
1 43010U 17072A   26177.73192537 -.00000195  00000+0 -70407-4 0  9993
2 43010  99.0125 152.3264 0002339  47.7980 312.3394 14.19740326446344
NOAA 20 (JPSS-1)        
1 43013U 17073A   26177.72844921  .00000042  00000+0  40828-4 0  9990
2 43013  98.7772 117.1062 0000629 133.0625 227.0604 14.19513365445820
GOES 17                 
1 43226U 18022A   26177.57660811 -.00000172  00000+0  00000+0 0  9996
2 43226   0.9605  85.5564 0000688  24.3401 282.8707  1.00272772 30519
SENTINEL-3B             
1 43437U 18039A   26177.72737676  .00000092  00000+0  55871-4 0  9990
2 43437  98.6246 245.1228 0000756 107.4193 252.7070 14.26737250425488
FENGYUN 2H              
1 43491U 18050A   26177.75264457 -.00000121  00000+0  00000+0 0  9991
2 43491   3.0563  78.9679 0001684 123.4572  62.7379  1.00269785 29530
METOP-C                 
1 43689U 18087A   26177.71111338  .00000084  00000+0  58166-4 0  9993
2 43689  98.6641 237.1405 0002044 117.4162 242.7224 14.21514450396187
GEO-KOMPSAT-2A          
1 43823U 18100A   26177.40586463 -.00000332  00000+0  00000+0 0  9996
2 43823   0.0441 152.0774 0002376 295.7570 101.0694  1.00272778 27723
METEOR-M2 2             
1 44387U 19038A   26177.72789606  .00000172  00000+0  94203-4 0  9996
2 44387  98.9145 165.1539 0001667  34.6575 325.4711 14.24368451362657
ARKTIKA-M 1             
1 47719U 21016A   26175.46896265 -.00000298  00000+0  00000+0 0  9993
2 47719  63.2470  56.5720 7291000 269.9787  14.5750  2.00620016 38936
FENGYUN 3E              
1 49008U 21062A   26177.57379686  .00000103  00000+0  69362-4 0  9999
2 49008  98.7493 180.8772 0002784  70.7921 289.3557 14.19904813257916
GOES 18                 
1 51850U 22021A   26177.56724807  .00000108  00000+0  00000+0 0  9995
2 51850   0.0083  66.3792 0000649  59.0002 216.5142  1.00273207  6683
NOAA 21 (JPSS-2)        
1 54234U 22150A   26177.54958930  .00000027  00000+0  33698-4 0  9995
2 54234  98.7060 116.1816 0002195 139.0396 221.0946 14.19538053187876
METEOSAT-12 (MTG-I1)    
1 54743U 22170C   26177.30908983  .00000003  00000+0  00000+0 0  9999
2 54743   0.7485  24.4460 0003633  71.6465 289.2792  1.00275301 13061
TIANMU-1 03             
1 55973U 23039A   26177.55617568  .00014791  00000+0  28921-3 0  9998
2 55973  97.5230 351.8939 0003966  77.1700 282.9992 15.47538967182288
TIANMU-1 04             
1 55974U 23039B   26177.60665078  .00015457  00000+0  29580-3 0  9996
2 55974  97.5168 351.1006 0004402  70.0866 290.0858 15.48148652182301
TIANMU-1 05             
1 55975U 23039C   26177.66672633  .00015085  00000+0  29563-3 0  9996
2 55975  97.5211 351.6203 0003950  91.5879 268.5823 15.47467249182288
TIANMU-1 06             
1 55976U 23039D   26177.61062027  .00015168  00000+0  29133-3 0  9997
2 55976  97.5220 352.2070 0004136  86.8804 273.2919 15.48049929182304
FENGYUN 3G              
1 56232U 23055A   26177.63028251  .00021332  00000+0  34103-3 0  9997
2 56232  49.9932 297.3517 0007205 336.0246  24.0385 15.53031460181479
METEOR-M2 3             
1 57166U 23091A   26177.58387961  .00000005  00000+0  20971-4 0  9997
2 57166  98.6079 232.3699 0004808 132.3355 227.8232 14.24047497155854
TIANMU-1 07             
1 57399U 23101A   26177.58429700  .00006579  00000+0  22966-3 0  9992
2 57399  97.2594 228.0368 0004336 102.3388 257.8339 15.29911574163080
TIANMU-1 08             
1 57400U 23101B   26177.55091332  .00007023  00000+0  24492-3 0  9999
2 57400  97.2582 227.7734 0005692  92.8104 267.3788 15.29915537163074
TIANMU-1 09             
1 57401U 23101C   26177.59953509  .00006428  00000+0  22419-3 0  9992
2 57401  97.2540 227.2319 0004890 105.9815 254.1965 15.29949847163080
TIANMU-1 10             
1 57402U 23101D   26177.56735207  .00006586  00000+0  22979-3 0  9999
2 57402  97.2620 228.2605 0006445 102.3391 257.8572 15.29921360163070
FENGYUN 3F              
1 57490U 23111A   26177.62795814  .00000029  00000+0  34109-4 0  9999
2 57490  98.6834 247.4607 0001553  86.3501 273.7854 14.19940511150201
ARKTIKA-M 2             
1 58584U 23198A   26174.74078844  .00000167  00000+0  00000+0 0  9997
2 58584  63.2421 153.6337 6904949 267.3888  18.7567  2.00611379 18452
TIANMU-1 11             
1 58645U 23205A   26177.62065321  .00005510  00000+0  20997-3 0  9998
2 58645  97.3445 199.0294 0007804 343.1144  16.9834 15.27086371138963
TIANMU-1 12             
1 58646U 23205B   26177.52570513  .00006028  00000+0  22975-3 0  9995
2 58646  97.3433 198.6898 0005655 327.1356  32.9531 15.27053512138935
TIANMU-1 13             
1 58647U 23205C   26177.55878551  .00005655  00000+0  21670-3 0  9998
2 58647  97.3461 198.9964 0005060 300.0610  60.0126 15.26905421138933
TIANMU-1 14             
1 58648U 23205D   26177.54371778  .00005899  00000+0  22561-3 0  9997
2 58648  97.3398 198.1560 0005952 306.0593  54.0094 15.26950281138934
TIANMU-1 19             
1 58660U 23208A   26177.62940931  .00008590  00000+0  28304-3 0  9998
2 58660  97.4509 293.9780 0003439 282.2151  77.8705 15.31709133138772
