OBJECT_NAME,OBJECT_ID,EPOCH,MEAN_MOTION,ECCENTRICITY,INCLINATION,RA_OF_ASC_NODE,ARG_OF_PERICENTER,MEAN_ANOMALY,EPHEMERIS_TYPE,CLASSIFICATION_TYPE,NORAD_CAT_ID,ELEMENT_SET_NO,REV_AT_EPOCH,BSTAR,MEAN_MOTION_DOT,MEAN_MOTION_DDOT
FENGYUN 3D,2017-072A,2026-06-26T17:33:58.351968,14.19740326,.0002339,99.0125,152.3264,47.7980,312.3394,0,U,43010,999,44634,-.70407E-4,-.195E-5,0
NOAA 20 (JPSS-1),2017-073A,2026-06-26T17:28:58.011744,14.19513365,.0000629,98.7772,117.1062,133.0625,227.0604,0,U,43013,999,44582,.40828E-4,.42E-6,0
GOES 17,2018-022A,2026-06-26T13:50:18.940704,1.00272772,.00006881,0.9605,85.5564,24.3401,282.8707,0,U,43226,999,3051,0,-.172E-5,0
SENTINEL-3B,2018-039A,2026-06-26T17:27:25.352064,14.26737250,.0000756,98.6246,245.1228,107.4193,252.7070,0,U,43437,999,42548,.55871E-4,.92E-6,0
FENGYUN 2H,2018-050A,2026-06-26T18:03:48.490848,1.00269785,.0001684,3.0563,78.9679,123.4572,62.7379,0,U,43491,999,2953,0,-.121E-5,0
METOP-C,2018-087A,2026-06-26T17:04:00.196032,14.21514450,.0002044,98.6641,237.1405,117.4162,242.7224,0,U,43689,999,39618,.58166E-4,.84E-6,0
GEO-KOMPSAT-2A,2018-100A,2026-06-26T09:44:26.704032,1.00272778,.00023761,0.0441,152.0774,295.7570,101.0694,0,U,43823,999,2772,0,-.332E-5,0
METEOR-M2 2,2019-038A,2026-06-26T17:28:10.219584,14.24368451,.0001667,98.9145,165.1539,34.6575,325.4711,0,U,44387,999,36265,.94203E-4,.172E-5,0
ARKTIKA-M 1,2021-016A,2026-06-24T11:15:18.372960,2.00620016,.7291,63.2470,56.5720,269.9787,14.5750,0,U,47719,999,3893,0,-.298E-5,0
FENGYUN 3E,2021-062A,2026-06-26T13:46:16.048704,14.19904813,.0002784,98.7493,180.8772,70.7921,289.3557,0,U,49008,999,25791,.69361704E-4,.103E-5,0
GOES 18,2022-021A,2026-06-26T13:36:50.233248,1.00273207,.00006491,0.0083,66.3792,59.0002,216.5142,0,U,51850,999,668,0,.108E-5,0
NOAA 21 (JPSS-2),2022-150A,2026-06-26T13:11:24.515520,14.19538053,.00021957,98.7060,116.1816,139.0396,221.0946,0,U,54234,999,18787,.33698299E-4,.27E-6,0
METEOSAT-12 (MTG-I1),2022-170C,2026-06-26T07:25:05.361312,1.00275301,.00036334,0.7485,24.4460,71.6465,289.2792,0,U,54743,999,1306,0,.3E-7,0
TIANMU-1 03,2023-039A,2026-06-26T13:20:53.578752,15.47538967,.00039662,97.5230,351.8939,77.1700,282.9992,0,U,55973,999,18228,.28921087E-3,.14791E-3,0
TIANMU-1 04,2023-039B,2026-06-26T14:33:34.627392,15.48148652,.0004402,97.5168,351.1006,70.0866,290.0858,0,U,55974,999,18230,.29579539E-3,.15457E-3,0
TIANMU-1 05,2023-039C,2026-06-26T16:00:05.154912,15.47467249,.00039503,97.5211,351.6203,91.5879,268.5823,0,U,55975,999,18228,.29562798E-3,.15085E-3,0
TIANMU-1 06,2023-039D,2026-06-26T14:39:17.591328,15.48049929,.00041362,97.5220,352.2070,86.8804,273.2919,0,U,55976,999,18230,.29132972E-3,.15168E-3,0
FENGYUN 3G,2023-055A,2026-06-26T15:07:36.408864,15.53031460,.00072052,49.9932,297.3517,336.0246,24.0385,0,U,56232,999,18147,.34103391E-3,.21332E-3,0
METEOR-M2 3,2023-091A,2026-06-26T14:00:47.198304,14.24047497,.00048086,98.6079,232.3699,132.3355,227.8232,0,U,57166,999,15585,.20971291E-4,.5E-7,0
TIANMU-1 07,2023-101A,2026-06-26T14:01:23.260800,15.29911574,.00043363,97.2594,228.0368,102.3388,257.8339,0,U,57399,999,16308,.22966386E-3,.6579E-4,0
TIANMU-1 08,2023-101B,2026-06-26T13:13:18.910848,15.29915537,.00056928,97.2582,227.7734,92.8104,267.3788,0,U,57400,999,16307,.24492329E-3,.7023E-4,0
TIANMU-1 09,2023-101C,2026-06-26T14:23:19.831776,15.29949847,.00048903,97.2540,227.2319,105.9815,254.1965,0,U,57401,999,16308,.22419089E-3,.6428E-4,0
TIANMU-1 10,2023-101D,2026-06-26T13:36:59.218848,15.29921360,.0006445,97.2620,228.2605,102.3391,257.8572,0,U,57402,999,16307,.2297878E-3,.6586E-4,0
FENGYUN 3F,2023-111A,2026-06-26T15:04:15.583296,14.19940511,.00015534,98.6834,247.4607,86.3501,273.7854,0,U,57490,999,15020,.34108829E-4,.29E-6,0
ARKTIKA-M 2,2023-198A,2026-06-23T17:46:44.121216,2.00611379,.69049491,63.2421,153.6337,267.3888,18.7567,0,U,58584,999,1845,0,.167E-5,0
TIANMU-1 11,2023-205A,2026-06-26T14:53:44.437344,15.27086371,.00078049,97.3445,199.0294,343.1144,16.9834,0,U,58645,999,13896,.20997177E-3,.551E-4,0
TIANMU-1 12,2023-205B,2026-06-26T12:37:00.923232,15.27053512,.00056559,97.3433,198.6898,327.1356,32.9531,0,U,58646,999,13893,.22975114E-3,.6028E-4,0
TIANMU-1 13,2023-205C,2026-06-26T13:24:39.068064,15.26905421,.00050609,97.3461,198.9964,300.0610,60.0126,0,U,58647,999,13893,.21669711E-3,.5655E-4,0
TIANMU-1 14,2023-205D,2026-06-26T13:02:57.216192,15.26950281,.00059521,97.3398,198.1560,306.0593,54.0094,0,U,58648,999,13893,.22561331E-3,.5899E-4,0
TIANMU-1 19,2023-208A,2026-06-26T15:06:20.964384,15.31709133,.00034395,97.4509,293.9780,282.2151,77.8705,0,U,58660,999,13877,.28303766E-3,.859E-4,0
